SENTINEL-6              
1 46984U 20086A   24020.57506339 -.00000048  00000+0  56947-4 0  9990
2 46984  66.0407 159.9381 0007722 269.7643  90.2487 12.80930292147791
